{
  "type": "FeatureCollection",
  "features": [
    {
      "type": "Feature",
      "properties": {
        "name": "Lambayeque",
        "NAME_1": "Lambayeque",
        "NOMBDEP": "Lambayeque"
      },
      "geometry": {
        "type": "Polygon",
        "coordinates": [[
          [-80.45, -7.25],
          [-79.35, -7.25],
          [-79.35, -5.95],
          [-80.45, -5.95],
          [-80.45, -7.25]
        ]]
      }
    },
    {
      "type": "Feature",
      "properties": {
        "name": "Lima",
        "NAME_1": "Lima",
        "NOMBDEP": "Lima"
      },
      "geometry": {
        "type": "Polygon",
        "coordinates": [[
          [-77.65, -13.4],
          [-76.3, -13.4],
          [-76.3, -11.55],
          [-77.65, -11.55],
          [-77.65, -13.4]
        ]]
      }
    },
    {
      "type": "Feature",
      "properties": {
        "name": "Arequipa",
        "NAME_1": "Arequipa",
        "NOMBDEP": "Arequipa"
      },
      "geometry": {
        "type": "Polygon",
        "coordinates": [[
          [-72.45, -17.5],
          [-70.65, -17.5],
          [-70.65, -15.4],
          [-72.45, -15.4],
          [-72.45, -17.5]
        ]]
      }
    },
    {
      "type": "Feature",
      "properties": {
        "name": "La Libertad",
        "NAME_1": "La Libertad",
        "NOMBDEP": "La Libertad"
      },
      "geometry": {
        "type": "Polygon",
        "coordinates": [[
          [-79.95, -8.95],
          [-78.55, -8.95],
          [-78.55, -6.85],
          [-79.95, -6.85],
          [-79.95, -8.95]
        ]]
      }
    },
    {
      "type": "Feature",
      "properties": {
        "name": "Piura",
        "NAME_1": "Piura",
        "NOMBDEP": "Piura"
      },
      "geometry": {
        "type": "Polygon",
        "coordinates": [[
          [-81.4, -5.95],
          [-79.7, -5.95],
          [-79.7, -3.95],
          [-81.4, -3.95],
          [-81.4, -5.95]
        ]]
      }
    },
    {
      "type": "Feature",
      "properties": {
        "name": "Cusco",
        "NAME_1": "Cusco",
        "NOMBDEP": "Cusco"
      },
      "geometry": {
        "type": "Polygon",
        "coordinates": [[
          [-73.2, -14.9],
          [-71.2, -14.9],
          [-71.2, -12.45],
          [-73.2, -12.45],
          [-73.2, -14.9]
        ]]
      }
    },
    {
      "type": "Feature",
      "properties": {
        "name": "Junín",
        "NAME_1": "Junín",
        "NOMBDEP": "Junín"
      },
      "geometry": {
        "type": "Polygon",
        "coordinates": [[
          [-76.0, -12.95],
          [-74.35, -12.95],
          [-74.35, -10.65],
          [-76.0, -10.65],
          [-76.0, -12.95]
        ]]
      }
    },
    {
      "type": "Feature",
      "properties": {
        "name": "Ica",
        "NAME_1": "Ica",
        "NOMBDEP": "Ica"
      },
      "geometry": {
        "type": "Polygon",
        "coordinates": [[
          [-76.45, -15.35],
          [-74.75, -15.35],
          [-74.75, -13.15],
          [-76.45, -13.15],
          [-76.45, -15.35]
        ]]
      }
    }
  ]
}
